ONEWEB-0718             
1 56081U 23043AM  25361.30211607 -.00000041  00000+0 -14389-3 0  9993
2 56081  87.8999 293.5091 0001185  77.5037 282.6226 13.15549843133834
ONEWEB-0561             
1 56710U 23068A   25361.30562283  .00000043  00000+0  74737-4 0  9992
2 56710  87.9212 308.7306 0002266  78.3148 281.8239 13.20771046126816
ONEWEB-0668             
1 56711U 23068B   25361.21980158  .00000014  00000+0  36730-5 0  9998
2 56711  87.9059 262.9984 0001231  90.6769 269.4503 13.16593156129151
ONEWEB-0676             
1 56712U 23068C   25361.15173167 -.00000027  00000+0 -10484-3 0  9998
2 56712  87.9046 263.0329 0001884  79.5564 280.5779 13.16597153129066
ONEWEB-0677             
1 56713U 23068D   25361.29457135  .00000133  00000+0  29481-3 0  9997
2 56713  87.9219 308.7177 0001887  84.3897 275.7451 13.20772477127119
ONEWEB-0678             
1 56714U 23068E   25361.27042941  .00000215  00000+0  53701-3 0  9994
2 56714  87.9018 293.4914 0001940  68.3359 291.7978 13.15547229126683
ONEWEB-0679             
1 56715U 23068F   25361.26254915  .00000171  00000+0  41332-3 0  9998
2 56715  87.9038 262.9938 0001668  94.3589 265.7733 13.16592868129104
ONEWEB-0680             
1 56716U 23068G   25361.26583323  .00000062  00000+0  11907-3 0  9991
2 56716  87.9234 278.2526 0001443  94.6344 265.4955 13.21827118128386
ONEWEB-0681             
1 56717U 23068H   25361.16957522  .00000062  00000+0  11912-3 0  9993
2 56717  87.9224 278.2861 0002724  84.8595 275.2850 13.21826910128360
ONEWEB-0682             
1 56718U 23068J   25361.29657711 -.00000003  00000+0 -41539-4 0  9991
2 56718  87.9005 293.4995 0001591  92.6844 267.4468 13.15548608126858
ONEWEB-0683             
1 56719U 23068K   25361.24190292 -.00000025  00000+0 -10019-3 0  9995
2 56719  87.9011 293.4963 0001599  82.6123 277.5189 13.15546525126812
ONEWEB-0684             
1 56720U 23068L   25361.24982383  .00000046  00000+0  86965-4 0  9992
2 56720  87.9008 293.4884 0002067  35.2220 324.9047 13.15548337126649
ONEWEB-0686             
1 56721U 23068M   25361.30328834 -.00000128  00000+0 -37449-3 0  9990
2 56721  87.9028 263.0359 0001297  69.2010 290.9260 13.15706123129090
ONEWEB-0694             
1 56722U 23068N   25361.15331325  .00000047  00000+0  90020-4 0  9996
2 56722  87.9058 262.9952 0001306  88.6276 271.5004 13.16594021129130
ONEWEB-0696             
1 56723U 23068P   25361.20703937  .00000349  00000+0  89191-3 0  9996
2 56723  87.8999 293.5481 0001913  68.5753 291.5582 13.15545753126757
ONEWEB-0703             
1 56724U 23068Q   25361.21654608  .00000028  00000+0  41238-4 0  9993
2 56724  87.9005 293.5279 0002662  60.9979 299.1418 13.15546452126647
ONEWEB-0721             
1 56725U 23068R   25361.31708340  .00002014  00000+0  47955-2 0  9995
2 56725  86.6806 140.3499 0001519  98.3735 261.7570 13.22445288135222
