[{"OBJECT_NAME":"ONEWEB-0718","OBJECT_ID":"2023-043AM","EPOCH":"2025-12-27T07:15:02.828448","MEAN_MOTION":13.15549843,"ECCENTRICITY":0.00011856,"INCLINATION":87.8999,"RA_OF_ASC_NODE":293.5091,"ARG_OF_PERICENTER":77.5037,"MEAN_ANOMALY":282.6226,"EPHEMERIS_TYPE":0,"CLASSIFICATION_TYPE":"U","NORAD_CAT_ID":56081,"ELEMENT_SET_NO":999,"REV_AT_EPOCH":13383,"BSTAR":-0.00014388777,"MEAN_MOTION_DOT":-4.1e-7,"MEAN_MOTION_DDOT":0},{"OBJECT_NAME":"ONEWEB-0561","OBJECT_ID":"2023-068A","EPOCH":"2025-12-27T07:20:05.812512","MEAN_MOTION":13.20771046,"ECCENTRICITY":0.0002266,"INCLINATION":87.9212,"RA_OF_ASC_NODE":308.7306,"ARG_OF_PERICENTER":78.3148,"MEAN_ANOMALY":281.8239,"EPHEMERIS_TYPE":0,"CLASSIFICATION_TYPE":"U","NORAD_CAT_ID":56710,"ELEMENT_SET_NO":999,"REV_AT_EPOCH":12681,"BSTAR":7.4736752e-5,"MEAN_MOTION_DOT":4.3e-7,"MEAN_MOTION_DDOT":0},{"OBJECT_NAME":"ONEWEB-0668","OBJECT_ID":"2023-068B","EPOCH":"2025-12-27T05:16:30.856512","MEAN_MOTION":13.16593156,"ECCENTRICITY":0.00012314,"INCLINATION":87.9059,"RA_OF_ASC_NODE":262.9984,"ARG_OF_PERICENTER":90.6769,"MEAN_ANOMALY":269.4503,"EPHEMERIS_TYPE":0,"CLASSIFICATION_TYPE":"U","NORAD_CAT_ID":56711,"ELEMENT_SET_NO":999,"REV_AT_EPOCH":12915,"BSTAR":3.672988e-6,"MEAN_MOTION_DOT":1.4e-7,"MEAN_MOTION_DDOT":0},{"OBJECT_NAME":"ONEWEB-0676","OBJECT_ID":"2023-068C","EPOCH":"2025-12-27T03:38:29.616288","MEAN_MOTION":13.16597153,"ECCENTRICITY":0.00018847,"INCLINATION":87.9046,"RA_OF_ASC_NODE":263.0329,"ARG_OF_PERICENTER":79.5564,"MEAN_ANOMALY":280.5779,"EPHEMERIS_TYPE":0,"CLASSIFICATION_TYPE":"U","NORAD_CAT_ID":56712,"ELEMENT_SET_NO":999,"REV_AT_EPOCH":12906,"BSTAR":-0.0001048437,"MEAN_MOTION_DOT":-2.7e-7,"MEAN_MOTION_DDOT":0},{"OBJECT_NAME":"ONEWEB-0677","OBJECT_ID":"2023-068D","EPOCH":"2025-12-27T07:04:10.964640","MEAN_MOTION":13.20772477,"ECCENTRICITY":0.00018874,"INCLINATION":87.9219,"RA_OF_ASC_NODE":308.7177,"ARG_OF_PERICENTER":84.3897,"MEAN_ANOMALY":275.7451,"EPHEMERIS_TYPE":0,"CLASSIFICATION_TYPE":"U","NORAD_CAT_ID":56713,"ELEMENT_SET_NO":999,"REV_AT_EPOCH":12711,"BSTAR":0.00029481401,"MEAN_MOTION_DOT":1.33e-6,"MEAN_MOTION_DDOT":0},{"OBJECT_NAME":"ONEWEB-0678","OBJECT_ID":"2023-068E","EPOCH":"2025-12-27T06:29:25.101024","MEAN_MOTION":13.15547229,"ECCENTRICITY":0.00019401,"INCLINATION":87.9018,"RA_OF_ASC_NODE":293.4914,"ARG_OF_PERICENTER":68.3359,"MEAN_ANOMALY":291.7978,"EPHEMERIS_TYPE":0,"CLASSIFICATION_TYPE":"U","NORAD_CAT_ID":56714,"ELEMENT_SET_NO":999,"REV_AT_EPOCH":12668,"BSTAR":0.0005370117,"MEAN_MOTION_DOT":2.15e-6,"MEAN_MOTION_DDOT":0},{"OBJECT_NAME":"ONEWEB-0679","OBJECT_ID":"2023-068F","EPOCH":"2025-12-27T06:18:04.246560","MEAN_MOTION":13.16592868,"ECCENTRICITY":0.00016683,"INCLINATION":87.9038,"RA_OF_ASC_NODE":262.9938,"ARG_OF_PERICENTER":94.3589,"MEAN_ANOMALY":265.7733,"EPHEMERIS_TYPE":0,"CLASSIFICATION_TYPE":"U","NORAD_CAT_ID":56715,"ELEMENT_SET_NO":999,"REV_AT_EPOCH":12910,"BSTAR":0.00041332019,"MEAN_MOTION_DOT":1.71e-6,"MEAN_MOTION_DDOT":0},{"OBJECT_NAME":"ONEWEB-0680","OBJECT_ID":"2023-068G","EPOCH":"2025-12-27T06:22:47.991072","MEAN_MOTION":13.21827118,"ECCENTRICITY":0.0001443,"INCLINATION":87.9234,"RA_OF_ASC_NODE":278.2526,"ARG_OF_PERICENTER":94.6344,"MEAN_ANOMALY":265.4955,"EPHEMERIS_TYPE":0,"CLASSIFICATION_TYPE":"U","NORAD_CAT_ID":56716,"ELEMENT_SET_NO":999,"REV_AT_EPOCH":12838,"BSTAR":0.00011906504,"MEAN_MOTION_DOT":6.2e-7,"MEAN_MOTION_DDOT":0},{"OBJECT_NAME":"ONEWEB-0681","OBJECT_ID":"2023-068H","EPOCH":"2025-12-27T04:04:11.299008","MEAN_MOTION":13.2182691,"ECCENTRICITY":0.00027241,"INCLINATION":87.9224,"RA_OF_ASC_NODE":278.2861,"ARG_OF_PERICENTER":84.8595,"MEAN_ANOMALY":275.285,"EPHEMERIS_TYPE":0,"CLASSIFICATION_TYPE":"U","NORAD_CAT_ID":56717,"ELEMENT_SET_NO":999,"REV_AT_EPOCH":12836,"BSTAR":0.0001191241,"MEAN_MOTION_DOT":6.2e-7,"MEAN_MOTION_DDOT":0},{"OBJECT_NAME":"ONEWEB-0682","OBJECT_ID":"2023-068J","EPOCH":"2025-12-27T07:07:04.262304","MEAN_MOTION":13.15548608,"ECCENTRICITY":0.00015912,"INCLINATION":87.9005,"RA_OF_ASC_NODE":293.4995,"ARG_OF_PERICENTER":92.6844,"MEAN_ANOMALY":267.4468,"EPHEMERIS_TYPE":0,"CLASSIFICATION_TYPE":"U","NORAD_CAT_ID":56718,"ELEMENT_SET_NO":999,"REV_AT_EPOCH":12685,"BSTAR":-4.153899e-5,"MEAN_MOTION_DOT":-3.0e-8,"MEAN_MOTION_DDOT":0},{"OBJECT_NAME":"ONEWEB-0683","OBJECT_ID":"2023-068K","EPOCH":"2025-12-27T05:48:20.412288","MEAN_MOTION":13.15546525,"ECCENTRICITY":0.00015992,"INCLINATION":87.9011,"RA_OF_ASC_NODE":293.4963,"ARG_OF_PERICENTER":82.6123,"MEAN_ANOMALY":277.5189,"EPHEMERIS_TYPE":0,"CLASSIFICATION_TYPE":"U","NORAD_CAT_ID":56719,"ELEMENT_SET_NO":999,"REV_AT_EPOCH":12681,"BSTAR":-0.00010019463,"MEAN_MOTION_DOT":-2.5e-7,"MEAN_MOTION_DDOT":0},{"OBJECT_NAME":"ONEWEB-0684","OBJECT_ID":"2023-068L","EPOCH":"2025-12-27T05:59:44.778912","MEAN_MOTION":13.15548337,"ECCENTRICITY":0.00020675,"INCLINATION":87.9008,"RA_OF_ASC_NODE":293.4884,"ARG_OF_PERICENTER":35.222,"MEAN_ANOMALY":324.9047,"EPHEMERIS_TYPE":0,"CLASSIFICATION_TYPE":"U","NORAD_CAT_ID":56720,"ELEMENT_SET_NO":999,"REV_AT_EPOCH":12664,"BSTAR":8.6964669e-5,"MEAN_MOTION_DOT":4.6e-7,"MEAN_MOTION_DDOT":0},{"OBJECT_NAME":"ONEWEB-0686","OBJECT_ID":"2023-068M","EPOCH":"2025-12-27T07:16:44.112576","MEAN_MOTION":13.15706123,"ECCENTRICITY":0.00012979,"INCLINATION":87.9028,"RA_OF_ASC_NODE":263.0359,"ARG_OF_PERICENTER":69.201,"MEAN_ANOMALY":290.926,"EPHEMERIS_TYPE":0,"CLASSIFICATION_TYPE":"U","NORAD_CAT_ID":56721,"ELEMENT_SET_NO":999,"REV_AT_EPOCH":12909,"BSTAR":-0.00037449151,"MEAN_MOTION_DOT":-1.28e-6,"MEAN_MOTION_DDOT":0},{"OBJECT_NAME":"ONEWEB-0694","OBJECT_ID":"2023-068N","EPOCH":"2025-12-27T03:40:46.264800","MEAN_MOTION":13.16594021,"ECCENTRICITY":0.00013062,"INCLINATION":87.9058,"RA_OF_ASC_NODE":262.9952,"ARG_OF_PERICENTER":88.6276,"MEAN_ANOMALY":271.5004,"EPHEMERIS_TYPE":0,"CLASSIFICATION_TYPE":"U","NORAD_CAT_ID":56722,"ELEMENT_SET_NO":999,"REV_AT_EPOCH":12913,"BSTAR":9.0019933e-5,"MEAN_MOTION_DOT":4.7e-7,"MEAN_MOTION_DDOT":0},{"OBJECT_NAME":"ONEWEB-0696","OBJECT_ID":"2023-068P","EPOCH":"2025-12-27T04:58:08.201568","MEAN_MOTION":13.15545753,"ECCENTRICITY":0.00019137,"INCLINATION":87.8999,"RA_OF_ASC_NODE":293.5481,"ARG_OF_PERICENTER":68.5753,"MEAN_ANOMALY":291.5582,"EPHEMERIS_TYPE":0,"CLASSIFICATION_TYPE":"U","NORAD_CAT_ID":56723,"ELEMENT_SET_NO":999,"REV_AT_EPOCH":12675,"BSTAR":0.00089190998,"MEAN_MOTION_DOT":3.49e-6,"MEAN_MOTION_DDOT":0},{"OBJECT_NAME":"ONEWEB-0703","OBJECT_ID":"2023-068Q","EPOCH":"2025-12-27T05:11:49.581312","MEAN_MOTION":13.15546452,"ECCENTRICITY":0.00026622,"INCLINATION":87.9005,"RA_OF_ASC_NODE":293.5279,"ARG_OF_PERICENTER":60.9979,"MEAN_ANOMALY":299.1418,"EPHEMERIS_TYPE":0,"CLASSIFICATION_TYPE":"U","NORAD_CAT_ID":56724,"ELEMENT_SET_NO":999,"REV_AT_EPOCH":12664,"BSTAR":4.1238084e-5,"MEAN_MOTION_DOT":2.8e-7,"MEAN_MOTION_DDOT":0},{"OBJECT_NAME":"ONEWEB-0721","OBJECT_ID":"2023-068R","EPOCH":"2025-12-27T07:36:36.005760","MEAN_MOTION":13.22445288,"ECCENTRICITY":0.00015196,"INCLINATION":86.6806,"RA_OF_ASC_NODE":140.3499,"ARG_OF_PERICENTER":98.3735,"MEAN_ANOMALY":261.757,"EPHEMERIS_TYPE":0,"CLASSIFICATION_TYPE":"U","NORAD_CAT_ID":56725,"ELEMENT_SET_NO":999,"REV_AT_EPOCH":13522,"BSTAR":0.0047955092,"MEAN_MOTION_DOT":2.014e-5,"MEAN_MOTION_DDOT":0}]
